[Satellite]
VERSION=1.1
NAME=SL-14 R/B
NICKNAME=SL-14 R/B
TLE1=1 11672U 80005B   15055.23053506  .00000558  00000-0  58832-4 0  9998
TLE2=2 11672  82.5181 155.7757 0016004 234.0383 125.9350 14.87484068897914
